[{"OBJECT_NAME":"TEVEL2-3","OBJECT_ID":"2025-052J","EPOCH":"2026-03-09T15:29:22.754400","MEAN_MOTION":15.30377031,"ECCENTRICITY":0.0004761,"INCLINATION":97.3994,"RA_OF_ASC_NODE":324.7775,"ARG_OF_PERICENTER":105.7353,"MEAN_ANOMALY":254.4413,"EPHEMERIS_TYPE":0,"CLASSIFICATION_TYPE":"U","NORAD_CAT_ID":63218,"ELEMENT_SET_NO":999,"REV_AT_EPOCH":5485,"BSTAR":0.00069446,"MEAN_MOTION_DOT":0.00020365,"MEAN_MOTION_DDOT":0},{"OBJECT_NAME":"STARLINK-35615","OBJECT_ID":"2025-245Z","EPOCH":"2026-03-09T21:45:45.394560","MEAN_MOTION":15.3020912,"ECCENTRICITY":7.849e-5,"INCLINATION":53.1574,"RA_OF_ASC_NODE":282.6068,"ARG_OF_PERICENTER":87.6641,"MEAN_ANOMALY":272.4449,"EPHEMERIS_TYPE":0,"CLASSIFICATION_TYPE":"U","NORAD_CAT_ID":66257,"ELEMENT_SET_NO":999,"REV_AT_EPOCH":2129,"BSTAR":0.00082069669,"MEAN_MOTION_DOT":0.00024033,"MEAN_MOTION_DDOT":0}]
